O3B MPOWER F1           
1 54755U 22174A   24237.74173191 -.00000021  00000+0  00000+0 0  9995
2 54755   0.0573 346.1361 0006663 161.7873 279.4251  5.00113756 32262
